NORAD_CAT_ID,OBJECT_NAME,OBJECT_TYPE,EPOCH,MEAN_MOTION,ECCENTRICITY,INCLINATION,RA_OF_ASC_NODE,ARG_OF_PERICENTER,MEAN_ANOMALY,BSTAR,MEAN_MOTION_DOT,MEAN_MOTION_DDOT,TLE_LINE0,TLE_LINE1,TLE_LINE2,SEMIMAJOR_AXIS,PERIOD,APOGEE,PERIGEE,DECAYED
53632.0,STARLINK-4606,PAYLOAD,2023-01-29 17:16:51,15.08837399,0.0001063,53.2167,279.1777,91.1691,268.9423,4.1796e-05,3.77e-06,0.0,0 STARLINK-4606,1 53632U 22104AW  23029.72004127  .00000377  00000-0  41796-4 0  9995,2 53632  53.2167 279.1777 0001063  91.1691 268.9423 15.08837399 23868,6917.888,95.438,540.489,539.018,0.0
53632.0,STARLINK-4606,PAYLOAD,2023-01-29 20:27:37,15.08836563,0.0001058,53.2168,278.5834,91.5033,268.608,-8.2215e-06,-4.19e-06,0.0,0 STARLINK-4606,1 53632U 22104AW  23029.85252144 -.00000419  00000-0 -82215-5 0  9994,2 53632  53.2168 278.5834 0001058  91.5033 268.6080 15.08836563 24908,6917.891,95.438,540.488,539.024,0.0
53632.0,STARLINK-4606,PAYLOAD,2023-01-30 02:49:10,15.08836534,0.0001066,53.2166,277.393,89.0464,271.065,5.0358e-05,5.14e-06,0.0,0 STARLINK-4606,1 53632U 22104AW  23030.11748206  .00000514  00000-0  50358-4 0  9990,2 53632  53.2166 277.3930 0001066  89.0464 271.0650 15.08836534 24942,6917.891,95.438,540.493,539.019,0.0
53632.0,STARLINK-4606,PAYLOAD,2023-01-30 21:53:48,15.08824421,0.0001149,53.2174,273.8246,96.0759,264.0364,0.00023393,3.436e-05,0.0,0 STARLINK-4606,1 53632U 22104AW  23030.91237135  .00003436  00000-0  23393-3 0  9996,2 53632  53.2174 273.8246 0001149  96.0759 264.0364 15.08824421 25069,6917.928,95.439,540.588,538.998,0.0
53632.0,STARLINK-4606,PAYLOAD,2023-01-31 01:04:34,15.08838422,0.000111,53.2173,273.2299,93.7942,266.3177,4.6337e-05,4.5e-06,0.0,0 STARLINK-4606,1 53632U 22104AW  23031.04484573  .00000450  00000-0  46337-4 0  9998,2 53632  53.2173 273.2299 0001110  93.7942 266.3177 15.08838422 24068,6917.885,95.438,540.518,538.982,0.0
53632.0,STARLINK-4606,PAYLOAD,2023-01-31 16:58:25,15.08843041,0.0001084,53.2175,270.2563,83.1866,276.9249,0.00014327,1.993e-05,0.0,0 STARLINK-4606,1 53632U 22104AW  23031.70724088  .00001993  00000-0  14327-3 0  9995,2 53632  53.2175 270.2563 0001084  83.1866 276.9249 15.08843041 25183,6917.871,95.437,540.486,538.986,0.0
53632.0,STARLINK-4606,PAYLOAD,2023-02-01 02:30:43,15.08852843,0.0001118,53.2174,268.4719,84.0432,276.0688,0.00021611,3.154e-05,0.0,0 STARLINK-4606,1 53632U 22104AW  23032.10467226  .00003154  00000-0  21611-3 0  9993,2 53632  53.2174 268.4719 0001118  84.0432 276.0688 15.08852843 24223,6917.841,95.437,540.48,538.933,0.0
53632.0,STARLINK-4606,PAYLOAD,2023-02-02 00:46:08,15.08836781,0.0001376,53.216,264.3075,92.1831,267.9319,1.8759e-05,1.1e-07,0.0,0 STARLINK-4606,1 53632U 22104AW  23033.03204683  .00000011  00000-0  18759-4 0  9991,2 53632  53.2160 264.3075 0001376  92.1831 267.9319 15.08836781 24365,6917.89,95.438,540.707,538.803,0.0
53632.0,STARLINK-4606,PAYLOAD,2023-02-02 15:04:36,15.08846972,0.0001575,53.216,261.6308,100.8616,259.2554,2.0133e-06,-2.56e-06,0.0,0 STARLINK-4606,1 53632U 22104AW  23033.62819994 -.00000256  00000-0  20133-5 0  9995,2 53632  53.2160 261.6308 0001575 100.8616 259.2554 15.08846972 24451,6917.859,95.437,540.814,538.635,0.0
53632.0,STARLINK-4606,PAYLOAD,2023-02-03 14:55:23,15.08837748,0.0001378,53.2147,257.171,86.1947,273.9203,6.8148e-05,7.97e-06,0.0,0 STARLINK-4606,1 53632U 22104AW  23034.62180295  .00000797  00000-0  68148-4 0  9997,2 53632  53.2147 257.1710 0001378  86.1947 273.9203 15.08837748 24609,6917.887,95.438,540.706,538.799,0.0
53632.0,STARLINK-4606,PAYLOAD,2023-02-04 14:46:10,15.0884115,0.0001275,53.2148,252.7115,86.8955,273.2183,5.5573e-05,5.97e-06,0.0,0 STARLINK-4606,1 53632U 22104AW  23035.61540135  .00000597  00000-0  55573-4 0  9996,2 53632  53.2148 252.7115 0001275  86.8955 273.2183 15.08841150 25773,6917.877,95.437,540.624,538.86,0.0
53632.0,STARLINK-4606,PAYLOAD,2023-02-04 21:07:44,15.08803705,0.000131,53.2156,251.5213,81.4683,278.6458,0.00064702,0.00010014,0.0,0 STARLINK-4606,1 53632U 22104AW  23035.88037075  .00010014  00000-0  64702-3 0  9997,2 53632  53.2156 251.5213 0001310  81.4683 278.6458 15.08803705 24796,6917.991,95.44,540.763,538.95,0.0
53632.0,STARLINK-4606,PAYLOAD,2023-02-05 00:18:28,15.08861289,0.0001246,53.2165,250.927,95.0672,265.0462,-0.00017742,-3.112e-05,0.0,0 STARLINK-4606,1 53632U 22104AW  23036.01283198 -.00003112  00000-0 -17742-3 0  9997,2 53632  53.2165 250.9270 0001246  95.0672 265.0462 15.08861289 24818,6917.815,95.436,540.542,538.818,0.0
53632.0,STARLINK-4606,PAYLOAD,2023-02-05 14:36:58,15.08835234,0.0001151,53.2161,248.2505,84.9487,275.1637,6.0914e-05,6.82e-06,0.0,0 STARLINK-4606,1 53632U 22104AW  23036.60900669  .00000682  00000-0  60914-4 0  9998,2 53632  53.2161 248.2505 0001151  84.9487 275.1637 15.08835234 24908,6917.895,95.438,540.556,538.964,0.0
53632.0,STARLINK-4606,PAYLOAD,2023-02-05 20:58:30,15.08844704,0.0001163,53.2169,247.0613,84.6477,275.4648,0.00012581,1.715e-05,0.0,0 STARLINK-4606,1 53632U 22104AW  23036.87395966  .00001715  00000-0  12581-3 0  9999,2 53632  53.2169 247.0613 0001163  84.6477 275.4648 15.08844704 25966,6917.866,95.437,540.536,538.926,0.0
53632.0,STARLINK-4606,PAYLOAD,2023-02-06 00:09:15,15.08857656,0.0001232,53.2169,246.4665,86.2716,273.8417,0.00023492,3.455e-05,0.0,0 STARLINK-4606,1 53632U 22104AW  23037.00642770  .00003455  00000-0  23492-3 0  9999,2 53632  53.2169 246.4665 0001232  86.2716 273.8417 15.08857656 24962,6917.826,95.436,540.544,538.839,0.0
53632.0,STARLINK-4606,PAYLOAD,2023-02-06 20:49:17,15.0883549,0.0001243,53.2165,242.6003,88.9258,271.1876,-3.1446e-05,-7.88e-06,0.0,0 STARLINK-4606,1 53632U 22104AW  23037.86756826 -.00000788  00000-0 -31446-4 0  9998,2 53632  53.2165 242.6003 0001243  88.9258 271.1876 15.08835490 25091,6917.894,95.438,540.619,538.899,0.0
53632.0,STARLINK-4606,PAYLOAD,2023-02-07 00:00:04,15.08835117,0.0001226,53.2169,242.0065,88.4947,271.6185,-3.1927e-05,-7.96e-06,0.0,0 STARLINK-4606,1 53632U 22104AW  23038.00004895 -.00000796  00000-0 -31927-4 0  9990,2 53632  53.2169 242.0065 0001226  88.4947 271.6185 15.08835117 26138,6917.895,95.438,540.608,538.912,0.0
53632.0,STARLINK-4606,PAYLOAD,2023-02-07 20:40:05,15.08834796,0.0001314,53.2179,238.141,94.8767,265.2376,3.2985e-05,2.37e-06,0.0,0 STARLINK-4606,1 53632U 22104AW  23038.86117143  .00000237  00000-0  32985-4 0  9998,2 53632  53.2179 238.1410 0001314  94.8767 265.2376 15.08834796 26265,6917.896,95.438,540.67,538.852,0.0
53632.0,STARLINK-4606,PAYLOAD,2023-02-08 06:12:23,15.08844745,0.0001281,53.2178,236.3567,85.2616,274.8523,5.2277e-06,-2.05e-06,0.0,0 STARLINK-4606,1 53632U 22104AW  23039.25860620 -.00000205  00000-0  52277-5 0  9990,2 53632  53.2178 236.3567 0001281  85.2616 274.8523 15.08844745 25306,6917.866,95.437,540.617,538.845,0.0
53632.0,STARLINK-4606,PAYLOAD,2023-02-08 20:30:51,15.0884036,0.0001307,53.2177,233.6803,88.4294,271.6848,0.00017598,2.514e-05,0.0,0 STARLINK-4606,1 53632U 22104AW  23039.85476609  .00002514  00000-0  17598-3 0  9995,2 53632  53.2177 233.6803 0001307  88.4294 271.6848 15.08840360 26411,6917.879,95.438,540.648,538.84,0.0
53632.0,STARLINK-4606,PAYLOAD,2023-02-09 06:03:11,15.08832856,0.000149,53.217,231.8964,81.5095,278.6066,6.5841e-05,7.6e-06,0.0,0 STARLINK-4606,1 53632U 22104AW  23040.25221353  .00000760  00000-0  65841-4 0  9991,2 53632  53.2170 231.8964 0001490  81.5095 278.6066 15.08832856 25451,6917.902,95.438,540.798,538.736,0.0
53632.0,STARLINK-4606,PAYLOAD,2023-02-09 18:46:16,15.08842964,0.0001484,53.2171,229.52,75.4277,284.6879,0.00013246,1.821e-05,0.0,0 STARLINK-4606,1 53632U 22104AW  23040.78213063  .00001821  00000-0  13246-3 0  9998,2 53632  53.2171 229.5200 0001484  75.4277 284.6879 15.08842964 25535,6917.871,95.437,540.763,538.71,0.0
53632.0,STARLINK-4606,PAYLOAD,2023-02-10 17:01:39,15.08845962,0.0001347,53.2172,225.3553,78.0816,282.0328,0.00022714,3.329e-05,0.0,0 STARLINK-4606,1 53632U 22104AW  23041.70948990  .00003329  00000-0  22714-3 0  9990,2 53632  53.2172 225.3553 0001347  78.0816 282.0328 15.08845962 26697,6917.862,95.437,540.659,538.795,0.0
53632.0,STARLINK-4606,PAYLOAD,2023-02-11 04:09:22,15.08831555,0.0001499,53.216,223.2735,68.1204,291.9948,-6.1076e-05,-1.26e-05,0.0,0 STARLINK-4606,1 53632U 22104AW  23042.17317428 -.00001260  00000-0 -61076-4 0  9997,2 53632  53.2160 223.2735 0001499  68.1204 291.9948 15.08831555 25747,6917.906,95.438,540.808,538.734,0.0
53632.0,STARLINK-4606,PAYLOAD,2023-02-11 20:03:13,15.0884831,0.000122,53.2163,220.2982,82.2443,277.8688,0.00037748,5.726e-05,0.0,0 STARLINK-4606,1 53632U 22104AW  23042.83556926  .00005726  00000-0  37748-3 0  9995,2 53632  53.2163 220.2982 0001220  82.2443 277.8688 15.08848310 25847,6917.855,95.437,540.564,538.876,0.0
53632.0,STARLINK-4606,PAYLOAD,2023-02-12 13:32:27,15.08852998,0.0001323,53.216,217.0276,93.157,266.9573,0.00076709,0.00011946,0.0,0 STARLINK-4606,1 53632U 22104AW  23043.56421134  .00011946  00000-0  76709-3 0  9999,2 53632  53.2160 217.0276 0001323  93.1570 266.9573 15.08852998 25951,6917.841,95.437,540.621,538.79,0.0
53632.0,STARLINK-4606,PAYLOAD,2023-02-13 03:50:56,15.08833321,0.0001685,53.2163,214.3511,88.194,271.9245,0.00052536,8.081e-05,0.0,0 STARLINK-4606,1 53632U 22104AW  23044.16037500  .00008081  00000-0  52536-3 0  9994,2 53632  53.2163 214.3511 0001685  88.1940 271.9245 15.08833321 26044,6917.901,95.438,540.931,538.6,0.0
53632.0,STARLINK-4606,PAYLOAD,2023-02-13 11:47:51,15.08843668,0.0001024,53.2172,212.8654,92.7624,267.3485,0.00049709,7.633e-05,0.0,0 STARLINK-4606,1 53632U 22104AW  23044.49157258  .00007633  00000-0  49709-3 0  9993,2 53632  53.2172 212.8654 0001024  92.7624 267.3485 15.08843668 27111,6917.869,95.437,540.443,539.026,0.0
53632.0,STARLINK-4606,PAYLOAD,2023-02-13 22:55:33,15.0886289,0.0001002,53.2166,210.7843,94.7422,265.3685,0.0016967,0.00026835,0.0,0 STARLINK-4606,1 53632U 22104AW  23044.95524911  .00026835  00000-0  16967-2 0  9992,2 53632  53.2166 210.7843 0001002  94.7422 265.3685 15.08862890 26167,6917.81,95.436,540.369,538.982,0.0
